[{"OBJECT_NAME":"ION SCV-015","OBJECT_ID":"2023-185H","EPOCH":"2026-03-09T22:36:51.209568","MEAN_MOTION":15.3163624,"ECCENTRICITY":0.00109059,"INCLINATION":97.5772,"RA_OF_ASC_NODE":155.3582,"ARG_OF_PERICENTER":92.3805,"MEAN_ANOMALY":267.8685,"EPHEMERIS_TYPE":0,"CLASSIFICATION_TYPE":"U","NORAD_CAT_ID":58469,"ELEMENT_SET_NO":999,"REV_AT_EPOCH":12588,"BSTAR":0.00030895808,"MEAN_MOTION_DOT":9.376e-5,"MEAN_MOTION_DDOT":0},{"OBJECT_NAME":"STARLINK-32185","OBJECT_ID":"2024-136N","EPOCH":"2026-03-09T06:49:01.073280","MEAN_MOTION":15.3021752,"ECCENTRICITY":0.00016352,"INCLINATION":53.1604,"RA_OF_ASC_NODE":77.4677,"ARG_OF_PERICENTER":79.0304,"MEAN_ANOMALY":281.088,"EPHEMERIS_TYPE":0,"CLASSIFICATION_TYPE":"U","NORAD_CAT_ID":60341,"ELEMENT_SET_NO":999,"REV_AT_EPOCH":8960,"BSTAR":0.00013055525,"MEAN_MOTION_DOT":3.511e-5,"MEAN_MOTION_DDOT":0}]
